SL-14 R/B               
1 21423U 91042B   26031.68566894  .00000454  00000+0  54416-4 0  9998
2 21423  82.4907 254.8905 0017235   7.8868 352.2614 14.81793846847599
ERS-1                   
1 21574U 91050A   26031.64764810  .00000454  00000+0  16012-3 0  9997
2 21574  98.7895  48.9509 0031157 313.5322  46.3277 14.39416946810407
ARIANE 40 R/B           
1 21610U 91050F   26031.71730526  .00000388  00000+0  12859-3 0  9994
2 21610  98.2089  85.3275 0003341 165.5896 194.5391 14.42864405813663
INTERCOSMOS 25          
1 21819U 91086A   26031.83437166  .00001127  00000+0  21988-3 0  9996
2 21819  82.6092 332.2796 1486442 196.3435 158.4305 12.11900108492220
SL-8 R/B                
1 21876U 92008B   26031.85603484  .00000070  00000+0  56215-4 0  9992
2 21876  82.9278 295.1777 0033480 236.6127 193.2152 13.75968914704350
SL-8 R/B                
1 21938U 92020B   26031.82323461  .00000117  00000+0  10530-3 0  9997
2 21938  82.9318 181.1262 0029752  42.7509  67.2390 13.75543315696060
USA 81                  
1 21949U 92023A   26031.77374619  .00000245  00000+0  83462-4 0  9994
2 21949  85.0117 152.7256 0002378 110.0037 250.1412 14.32352961 89502
COSMOS 2219             
1 22219U 92076A   26031.59548106 -.00000239  00000+0 -10036-3 0  9998
2 22219  71.0596  95.6173 0020682 258.5420 101.3380 14.14078638713134
SL-16 R/B               
1 22220U 92076B   26031.84632209  .00000234  00000+0  14044-3 0  9992
2 22220  70.9986 265.9851 0012028 160.9547 274.8837 14.16851551716617
COSMOS 2221             
1 22236U 92080A   26031.85275788  .00002670  00000+0  23522-3 0  9997
2 22236  82.5068 314.3562 0013497 322.8242  37.2044 14.96041403775288
SL-16 R/B               
1 22285U 92093B   26031.84961946 -.00000200  00000+0 -78182-4 0  9994
2 22285  71.0210  81.6063 0004913 332.4288  27.6573 14.15442831707943
COSMOS 2228             
1 22286U 92094A   26031.82632648  .00002033  00000+0  17374-3 0  9997
2 22286  82.5171 272.6085 0019497  67.5479 292.7806 14.97018060770547
