CCSDS_OMM_VERS = 2.0
CREATION_DATE  = 
ORIGINATOR     = 

OBJECT_NAME    = SL-14 R/B
OBJECT_ID      = 1991-042B
CENTER_NAME    = EARTH
REF_FRAME      = TEME
TIME_SYSTEM    = UTC
MEAN_ELEMENT_THEORY = SGP/SGP4

EPOCH          = 2026-01-31T16:27:21.796416
MEAN_MOTION    = 14.81793846
ECCENTRICITY   = .0017235
INCLINATION    = 82.4907
RA_OF_ASC_NODE = 254.8905
ARG_OF_PERICENTER = 7.8868
MEAN_ANOMALY   = 352.2614

EPHEMERIS_TYPE = 0
CLASSIFICATION_TYPE = U
NORAD_CAT_ID   = 21423
ELEMENT_SET_NO = 999
REV_AT_EPOCH   = 84759
BSTAR          = .54416E-4
MEAN_MOTION_DOT = .454E-5
MEAN_MOTION_DDOT = 0

CCSDS_OMM_VERS = 2.0
CREATION_DATE  = 
ORIGINATOR     = 

OBJECT_NAME    = ERS-1
OBJECT_ID      = 1991-050A
CENTER_NAME    = EARTH
REF_FRAME      = TEME
TIME_SYSTEM    = UTC
MEAN_ELEMENT_THEORY = SGP/SGP4

EPOCH          = 2026-01-31T15:32:36.795840
MEAN_MOTION    = 14.39416946
ECCENTRICITY   = .0031157
INCLINATION    = 98.7895
RA_OF_ASC_NODE = 48.9509
ARG_OF_PERICENTER = 313.5322
MEAN_ANOMALY   = 46.3277

EPHEMERIS_TYPE = 0
CLASSIFICATION_TYPE = U
NORAD_CAT_ID   = 21574
ELEMENT_SET_NO = 999
REV_AT_EPOCH   = 81040
BSTAR          = .16012E-3
MEAN_MOTION_DOT = .454E-5
MEAN_MOTION_DDOT = 0

CCSDS_OMM_VERS = 2.0
CREATION_DATE  = 
ORIGINATOR     = 

OBJECT_NAME    = ARIANE 40 R/B
OBJECT_ID      = 1991-050F
CENTER_NAME    = EARTH
REF_FRAME      = TEME
TIME_SYSTEM    = UTC
MEAN_ELEMENT_THEORY = SGP/SGP4

EPOCH          = 2026-01-31T17:12:55.174464
MEAN_MOTION    = 14.42864405
ECCENTRICITY   = .0003341
INCLINATION    = 98.2089
RA_OF_ASC_NODE = 85.3275
ARG_OF_PERICENTER = 165.5896
MEAN_ANOMALY   = 194.5391

EPHEMERIS_TYPE = 0
CLASSIFICATION_TYPE = U
NORAD_CAT_ID   = 21610
ELEMENT_SET_NO = 999
REV_AT_EPOCH   = 81366
BSTAR          = .12859E-3
MEAN_MOTION_DOT = .388E-5
MEAN_MOTION_DDOT = 0

CCSDS_OMM_VERS = 2.0
CREATION_DATE  = 
ORIGINATOR     = 

OBJECT_NAME    = INTERCOSMOS 25
OBJECT_ID      = 1991-086A
CENTER_NAME    = EARTH
REF_FRAME      = TEME
TIME_SYSTEM    = UTC
MEAN_ELEMENT_THEORY = SGP/SGP4

EPOCH          = 2026-01-31T20:01:29.711424
MEAN_MOTION    = 12.11900108
ECCENTRICITY   = .1486442
INCLINATION    = 82.6092
RA_OF_ASC_NODE = 332.2796
ARG_OF_PERICENTER = 196.3435
MEAN_ANOMALY   = 158.4305

EPHEMERIS_TYPE = 0
CLASSIFICATION_TYPE = U
NORAD_CAT_ID   = 21819
ELEMENT_SET_NO = 999
REV_AT_EPOCH   = 49222
BSTAR          = .21988E-3
MEAN_MOTION_DOT = .1127E-4
MEAN_MOTION_DDOT = 0

CCSDS_OMM_VERS = 2.0
CREATION_DATE  = 
ORIGINATOR     = 

OBJECT_NAME    = SL-8 R/B
OBJECT_ID      = 1992-008B
CENTER_NAME    = EARTH
REF_FRAME      = TEME
TIME_SYSTEM    = UTC
MEAN_ELEMENT_THEORY = SGP/SGP4

EPOCH          = 2026-01-31T20:32:41.410176
MEAN_MOTION    = 13.75968914
ECCENTRICITY   = .003348
INCLINATION    = 82.9278
RA_OF_ASC_NODE = 295.1777
ARG_OF_PERICENTER = 236.6127
MEAN_ANOMALY   = 193.2152

EPHEMERIS_TYPE = 0
CLASSIFICATION_TYPE = U
NORAD_CAT_ID   = 21876
ELEMENT_SET_NO = 999
REV_AT_EPOCH   = 70435
BSTAR          = .56215E-4
MEAN_MOTION_DOT = .7E-6
MEAN_MOTION_DDOT = 0

CCSDS_OMM_VERS = 2.0
CREATION_DATE  = 
ORIGINATOR     = 

OBJECT_NAME    = SL-8 R/B
OBJECT_ID      = 1992-020B
CENTER_NAME    = EARTH
REF_FRAME      = TEME
TIME_SYSTEM    = UTC
MEAN_ELEMENT_THEORY = SGP/SGP4

EPOCH          = 2026-01-31T19:45:27.470304
MEAN_MOTION    = 13.75543315
ECCENTRICITY   = .0029752
INCLINATION    = 82.9318
RA_OF_ASC_NODE = 181.1262
ARG_OF_PERICENTER = 42.7509
MEAN_ANOMALY   = 67.2390

EPHEMERIS_TYPE = 0
CLASSIFICATION_TYPE = U
NORAD_CAT_ID   = 21938
ELEMENT_SET_NO = 999
REV_AT_EPOCH   = 69606
BSTAR          = .1053E-3
MEAN_MOTION_DOT = .117E-5
MEAN_MOTION_DDOT = 0

CCSDS_OMM_VERS = 2.0
CREATION_DATE  = 
ORIGINATOR     = 

OBJECT_NAME    = USA 81
OBJECT_ID      = 1992-023A
CENTER_NAME    = EARTH
REF_FRAME      = TEME
TIME_SYSTEM    = UTC
MEAN_ELEMENT_THEORY = SGP/SGP4

EPOCH          = 2026-01-31T18:34:11.670816
MEAN_MOTION    = 14.32352961
ECCENTRICITY   = .0002378
INCLINATION    = 85.0117
RA_OF_ASC_NODE = 152.7256
ARG_OF_PERICENTER = 110.0037
MEAN_ANOMALY   = 250.1412

EPHEMERIS_TYPE = 0
CLASSIFICATION_TYPE = U
NORAD_CAT_ID   = 21949
ELEMENT_SET_NO = 999
REV_AT_EPOCH   = 8950
BSTAR          = .83462E-4
MEAN_MOTION_DOT = .245E-5
MEAN_MOTION_DDOT = 0

CCSDS_OMM_VERS = 2.0
CREATION_DATE  = 
ORIGINATOR     = 

OBJECT_NAME    = COSMOS 2219
OBJECT_ID      = 1992-076A
CENTER_NAME    = EARTH
REF_FRAME      = TEME
TIME_SYSTEM    = UTC
MEAN_ELEMENT_THEORY = SGP/SGP4

EPOCH          = 2026-01-31T14:17:29.563584
MEAN_MOTION    = 14.14078638
ECCENTRICITY   = .0020682
INCLINATION    = 71.0596
RA_OF_ASC_NODE = 95.6173
ARG_OF_PERICENTER = 258.5420
MEAN_ANOMALY   = 101.3380

EPHEMERIS_TYPE = 0
CLASSIFICATION_TYPE = U
NORAD_CAT_ID   = 22219
ELEMENT_SET_NO = 999
REV_AT_EPOCH   = 71313
BSTAR          = -.10036E-3
MEAN_MOTION_DOT = -.239E-5
MEAN_MOTION_DDOT = 0

CCSDS_OMM_VERS = 2.0
CREATION_DATE  = 
ORIGINATOR     = 

OBJECT_NAME    = SL-16 R/B
OBJECT_ID      = 1992-076B
CENTER_NAME    = EARTH
REF_FRAME      = TEME
TIME_SYSTEM    = UTC
MEAN_ELEMENT_THEORY = SGP/SGP4

EPOCH          = 2026-01-31T20:18:42.228576
MEAN_MOTION    = 14.16851551
ECCENTRICITY   = .0012028
INCLINATION    = 70.9986
RA_OF_ASC_NODE = 265.9851
ARG_OF_PERICENTER = 160.9547
MEAN_ANOMALY   = 274.8837

EPHEMERIS_TYPE = 0
CLASSIFICATION_TYPE = U
NORAD_CAT_ID   = 22220
ELEMENT_SET_NO = 999
REV_AT_EPOCH   = 71661
BSTAR          = .14044E-3
MEAN_MOTION_DOT = .234E-5
MEAN_MOTION_DDOT = 0

CCSDS_OMM_VERS = 2.0
CREATION_DATE  = 
ORIGINATOR     = 

OBJECT_NAME    = COSMOS 2221
OBJECT_ID      = 1992-080A
CENTER_NAME    = EARTH
REF_FRAME      = TEME
TIME_SYSTEM    = UTC
MEAN_ELEMENT_THEORY = SGP/SGP4

EPOCH          = 2026-01-31T20:27:58.280832
MEAN_MOTION    = 14.96041403
ECCENTRICITY   = .0013497
INCLINATION    = 82.5068
RA_OF_ASC_NODE = 314.3562
ARG_OF_PERICENTER = 322.8242
MEAN_ANOMALY   = 37.2044

EPHEMERIS_TYPE = 0
CLASSIFICATION_TYPE = U
NORAD_CAT_ID   = 22236
ELEMENT_SET_NO = 999
REV_AT_EPOCH   = 77528
BSTAR          = .23522E-3
MEAN_MOTION_DOT = .267E-4
MEAN_MOTION_DDOT = 0

CCSDS_OMM_VERS = 2.0
CREATION_DATE  = 
ORIGINATOR     = 

OBJECT_NAME    = SL-16 R/B
OBJECT_ID      = 1992-093B
CENTER_NAME    = EARTH
REF_FRAME      = TEME
TIME_SYSTEM    = UTC
MEAN_ELEMENT_THEORY = SGP/SGP4

EPOCH          = 2026-01-31T20:23:27.121344
MEAN_MOTION    = 14.15442831
ECCENTRICITY   = .0004913
INCLINATION    = 71.0210
RA_OF_ASC_NODE = 81.6063
ARG_OF_PERICENTER = 332.4288
MEAN_ANOMALY   = 27.6573

EPHEMERIS_TYPE = 0
CLASSIFICATION_TYPE = U
NORAD_CAT_ID   = 22285
ELEMENT_SET_NO = 999
REV_AT_EPOCH   = 70794
BSTAR          = -.78182E-4
MEAN_MOTION_DOT = -.2E-5
MEAN_MOTION_DDOT = 0

CCSDS_OMM_VERS = 2.0
CREATION_DATE  = 
ORIGINATOR     = 

OBJECT_NAME    = COSMOS 2228
OBJECT_ID      = 1992-094A
CENTER_NAME    = EARTH
REF_FRAME      = TEME
TIME_SYSTEM    = UTC
MEAN_ELEMENT_THEORY = SGP/SGP4

EPOCH          = 2026-01-31T19:49:54.607872
MEAN_MOTION    = 14.97018060
ECCENTRICITY   = .0019497
INCLINATION    = 82.5171
RA_OF_ASC_NODE = 272.6085
ARG_OF_PERICENTER = 67.5479
MEAN_ANOMALY   = 292.7806

EPHEMERIS_TYPE = 0
CLASSIFICATION_TYPE = U
NORAD_CAT_ID   = 22286
ELEMENT_SET_NO = 999
REV_AT_EPOCH   = 77054
BSTAR          = .17374E-3
MEAN_MOTION_DOT = .2033E-4
MEAN_MOTION_DDOT = 0

